{
  "norad_id": 65948,
  "name": "KUIPER-00113",
  "history": [
    {
      "epoch": "2026-03-28T18:40:15.872736",
      "apogee_km": 630.0069723705419,
      "perigee_km": 628.988202454223,
      "latitude_deg": -32.08436961042384,
      "longitude_deg": 129.4843030399643,
      "semi_major_axis_km": 7007.634587412382,
      "eccentricity": 7.269e-05,
      "inclination_deg": 51.8978,
      "raan_deg": 271.1844,
      "arg_perigee_deg": 108.6336,
      "mean_anomaly_deg": 251.4705,
      "mean_motion_rev_day": 14.79945051
    }
  ]
}