{"fetched_at":"2026-03-30T06:02:59Z","count":15439,"tles":[{"name":"KUIPER-00113","line1":"1 65948U 25228B   26087.77796149  .00003900  00000+0  54008-3 0  9995","line2":"2 65948  51.8978 271.1844 0000726 108.6336 251.4705 14.79945051 26121","category":"Other"}]}